GLOBALSTAR M067         
1 32263U 07048A   25063.21911471 -.00000081  00000+0  11977-3 0  9994
2 32263  51.9756 343.0778 0001397  99.7813  55.1215 12.40667021796707
GLOBALSTAR M070         
1 32264U 07048B   25062.60684404 -.00000077  00000+0  14732-3 0  9997
2 32264  51.9741  90.1426 0000311 150.5073   0.3766 12.62313293801311
GLOBALSTAR M066         
1 32265U 07048C   25063.17963189 -.00000084  00000+0  94935-4 0  9993
2 32265  51.9667 329.5655 0001802  20.0325 134.4094 12.35250329803268
GLOBALSTAR M068         
1 32266U 07048D   25063.05853398 -.00000088  00000+0  86884-4 0  9999
2 32266  51.9868 262.7252 0000055 185.7800 316.0807 12.62816423804566
GLOBALSTAR M079         
1 37188U 10054A   25063.17134970 -.00000098  00000+0  30392-4 0  9993
2 37188  52.0028  99.4715 0000632  93.3461 293.0609 12.62271454663871
GLOBALSTAR M074         
1 37189U 10054B   25062.83379089 -.00000090  00000+0  77053-4 0  9995
2 37189  52.0005  99.8391 0000557 131.2814  39.4853 12.62267015663759
GLOBALSTAR M076         
1 37190U 10054C   25063.14671132 -.00000098  00000+0  33057-4 0  9990
2 37190  52.0018  99.0437 0000809 115.2359 280.9124 12.62278247663870
GLOBALSTAR M077         
1 37191U 10054D   25062.68905270 -.00000116  00000+0 -67580-4 0  9992
2 37191  52.0075  57.2652 0000375  97.0055  76.0843 12.62271277663820
